[{"OBJECT_NAME":"STARLINK-35606","OBJECT_ID":"2025-240AB","EPOCH":"2026-03-09T09:12:20.711520","MEAN_MOTION":15.30206725,"ECCENTRICITY":7.836e-5,"INCLINATION":53.1604,"RA_OF_ASC_NODE":64.0717,"ARG_OF_PERICENTER":99.4375,"MEAN_ANOMALY":260.6714,"EPHEMERIS_TYPE":0,"CLASSIFICATION_TYPE":"U","NORAD_CAT_ID":66171,"ELEMENT_SET_NO":999,"REV_AT_EPOCH":2194,"BSTAR":0.00081215723,"MEAN_MOTION_DOT":0.00023777,"MEAN_MOTION_DDOT":0},{"OBJECT_NAME":"COSMOS 1782","OBJECT_ID":"1986-074A","EPOCH":"2026-03-09T22:40:22.374624","MEAN_MOTION":15.33314157,"ECCENTRICITY":0.00054418,"INCLINATION":82.5242,"RA_OF_ASC_NODE":238.1482,"ARG_OF_PERICENTER":197.7479,"MEAN_ANOMALY":162.3574,"EPHEMERIS_TYPE":0,"CLASSIFICATION_TYPE":"U","NORAD_CAT_ID":16986,"ELEMENT_SET_NO":999,"REV_AT_EPOCH":13134,"BSTAR":0.00042191031,"MEAN_MOTION_DOT":0.00013623,"MEAN_MOTION_DDOT":0}]
